IRIDIUM 144             
1 43249U 18030A   24349.80351046  .00000033  00000+0  47359-5 0  9991
2 43249  86.3985 160.0627 0001764  90.5083 269.6315 14.34217839351416
IRIDIUM 149             
1 43250U 18030B   24349.87962153  .00000119  00000+0  35432-4 0  9990
2 43250  86.3983 160.0041 0001927  97.3334 262.8081 14.34217812351428
IRIDIUM 157             
1 43251U 18030C   24349.48003911  .00000036  00000+0  57125-5 0  9998
2 43251  86.3984 160.2119 0002123  93.3127 266.8311 14.34217761351347
IRIDIUM 140             
1 43252U 18030D   24349.77814414  .00000194  00000+0  62170-4 0  9999
2 43252  86.3984 160.1015 0001914  88.8273 271.3142 14.34219836351449
IRIDIUM 145             
1 43253U 18030E   24349.90499164  .00000001  00000+0 -68294-5 0  9998
2 43253  86.3989 160.0218 0001483  98.0082 262.1282 14.34217486351397
IRIDIUM 146             
1 43254U 18030F   24350.09526961 -.00000049  00000+0 -24736-4 0  9992
2 43254  86.3988 159.9565 0001585  97.0700 263.0676 14.34216969351435
IRIDIUM 148             
1 43255U 18030G   24349.71471350 -.00000107  00000+0 -45297-4 0  9991
2 43255  86.3990 160.1500 0001781  97.3668 262.7730 14.34216786351418
IRIDIUM 142             
1 43256U 18030H   24349.54346367  .00000119  00000+0  35402-4 0  9990
2 43256  86.3982 160.1306 0001666 103.3666 256.7716 14.34218138351355
